{"type": "FeatureCollection", "features": [ {"type": "Feature", "properties": {"norad_id": 36540, "name": "COSMOS 2251 DEB", "group": "cosmos-2251-debris", "lat": 60.98760588846648, "lon": -38.33287763539742, "alt_km": 698.07972585682, "timestamp": "2025-12-16T19:34:24.665981+00:00", "meta": {"OBJECT_NAME": "COSMOS 2251 DEB", "OBJECT_ID": "1993-036BDA", "EPOCH": "2025-12-13T18:37:01.077024", "MEAN_MOTION": 14.58495892, "ECCENTRICITY": 0.00149508, "INCLINATION": 74.0294, "RA_OF_ASC_NODE": 178.5434, "ARG_OF_PERICENTER": 248.6284, "MEAN_ANOMALY": 111.3286, "EPHEMERIS_TYPE": 0, "CLASSIFICATION_TYPE": "U", "NORAD_CAT_ID": 36540, "ELEMENT_SET_NO": 999, "REV_AT_EPOCH": 86025, "BSTAR": 0.0012951395, "MEAN_MOTION_DOT": 6e-05, "MEAN_MOTION_DDOT": 0}, "tle": {"line1": "1 36540U 93036BDA 25347.77570691  .00006000  00000+0  12951-2 0  9997", "line2": "2 36540  74.0294 178.5434 0014950 248.6284 111.3286 14.58495892860259"}}, "geometry": {"type": "Point", "coordinates": [-38.33287763539742, 60.98760588846648]}}, {"type": "Feature", "properties": {"norad_id": 36550, "name": "COSMOS 2251 DEB", "group": "cosmos-2251-debris", "lat": -34.036566974584886, "lon": 16.51258509755306, "alt_km": 753.7923014877242, "timestamp": "2025-12-16T19:34:24.665991+00:00", "meta": {"OBJECT_NAME": "COSMOS 2251 DEB", "OBJECT_ID": "1993-036BDL", "EPOCH": "2025-12-12T06:53:46.055040", "MEAN_MOTION": 14.27197589, "ECCENTRICITY": 0.00783785, "INCLINATION": 74.0439, "RA_OF_ASC_NODE": 193.5589, "ARG_OF_PERICENTER": 244.3101, "MEAN_ANOMALY": 114.994, "EPHEMERIS_TYPE": 0, "CLASSIFICATION_TYPE": "U", "NORAD_CAT_ID": 36550, "ELEMENT_SET_NO": 999, "REV_AT_EPOCH": 84589, "BSTAR": 0.00090622054, "MEAN_MOTION_DOT": 2.261e-05, "MEAN_MOTION_DDOT": 0}, "tle": {"line1": "1 36550U 93036BDL 25346.28733860  .00002261  00000+0  90622-3 0  9999", "line2": "2 36550  74.0439 193.5589 0078378 244.3101 114.9940 14.27197589845891"}}, "geometry": {"type": "Point", "coordinates": [16.51258509755306, -34.036566974584886]}}, {"type": "Feature", "properties": {"norad_id": 36551, "name": "COSMOS 2251 DEB", "group": "cosmos-2251-debris", "lat": -58.14070884486499, "lon": -21.409811438076016, "alt_km": 531.4808954407736, "timestamp": "2025-12-16T19:34:24.666001+00:00", "meta": {"OBJECT_NAME": "COSMOS 2251 DEB", "OBJECT_ID": "1993-036BDM", "EPOCH": "2025-12-15T18:16:54.856128", "MEAN_MOTION": 15.02667404, "ECCENTRICITY": 0.00509963, "INCLINATION": 73.8871, "RA_OF_ASC_NODE": 8.48, "ARG_OF_PERICENTER": 317.1051, "MEAN_ANOMALY": 42.6163, "EPHEMERIS_TYPE": 0, "CLASSIFICATION_TYPE": "U", "NORAD_CAT_ID": 36551, "ELEMENT_SET_NO": 999, "REV_AT_EPOCH": 66977, "BSTAR": 0.0007245537, "MEAN_MOTION_DOT": 9.911e-05, "MEAN_MOTION_DDOT": 0}, "tle": {"line1": "1 36551U 93036BDM 25349.76174602  .00009911  00000+0  72455-3 0  9992", "line2": "2 36551  73.8871   8.4800 0050996 317.1051  42.6163 15.02667404669775"}}, "geometry": {"type": "Point", "coordinates": [-21.409811438076016, -58.14070884486499]}}, {"type": "Feature", "properties": {"norad_id": 36557, "name": "COSMOS 2251 DEB", "group": "cosmos-2251-debris", "lat": -68.24011300485327, "lon": 72.17401328804551, "alt_km": 626.4325076810856, "timestamp": "2025-12-16T19:34:24.666011+00:00", "meta": {"OBJECT_NAME": "COSMOS 2251 DEB", "OBJECT_ID": "1993-036BDT", "EPOCH": "2025-12-14T02:57:01.048320", "MEAN_MOTION": 14.78340641, "ECCENTRICITY": 0.0021568, "INCLINATION": 73.9788, "RA_OF_ASC_NODE": 123.5235, "ARG_OF_PERICENTER": 275.624, "MEAN_ANOMALY": 84.2475, "EPHEMERIS_TYPE": 0, "CLASSIFICATION_TYPE": "U", "NORAD_CAT_ID": 36557, "ELEMENT_SET_NO": 999, "REV_AT_EPOCH": 33917, "BSTAR": 0.0036752981, "MEAN_MOTION_DOT": 0.00026914, "MEAN_MOTION_DDOT": 0}, "tle": {"line1": "1 36557U 93036BDT 25348.12292880  .00026914  00000+0  36753-2 0  9998", "line2": "2 36557  73.9788 123.5235 0021568 275.6240  84.2475 14.78340641339170"}}, "geometry": {"type": "Point", "coordinates": [72.17401328804551, -68.24011300485327]}}, {"type": "Feature", "properties": {"norad_id": 36558, "name": "COSMOS 2251 DEB", "group": "cosmos-2251-debris", "lat": -62.02900409193068, "lon": -0.5685422134124656, "alt_km": 705.9033496719867, "timestamp": "2025-12-16T19:34:24.666021+00:00", "meta": {"OBJECT_NAME": "COSMOS 2251 DEB", "OBJECT_ID": "1993-036BDU", "EPOCH": "2025-12-13T04:39:28.280448", "MEAN_MOTION": 14.5536689, "ECCENTRICITY": 0.00129076, "INCLINATION": 74.0417, "RA_OF_ASC_NODE": 153.6824, "ARG_OF_PERICENTER": 242.3004, "MEAN_ANOMALY": 117.6851, "EPHEMERIS_TYPE": 0, "CLASSIFICATION_TYPE": "U", "NORAD_CAT_ID": 36558, "ELEMENT_SET_NO": 999, "REV_AT_EPOCH": 85275, "BSTAR": 0.0014840285, "MEAN_MOTION_DOT": 6.426e-05, "MEAN_MOTION_DDOT": 0}, "tle": {"line1": "1 36558U 93036BDU 25347.19407732  .00006426  00000+0  14840-2 0  9998", "line2": "2 36558  74.0417 153.6824 0012907 242.3004 117.6851 14.55366890852758"}}, "geometry": {"type": "Point", "coordinates": [-0.5685422134124656, -62.02900409193068]}}, {"type": "Feature", "properties": {"norad_id": 36559, "name": "COSMOS 2251 DEB", "group": "cosmos-2251-debris", "lat": -73.19257407884949, "lon": -67.4725953025633, "alt_km": 1005.2360548632514, "timestamp": "2025-12-16T19:34:24.666032+00:00", "meta": {"OBJECT_NAME": "COSMOS 2251 DEB", "OBJECT_ID": "1993-036BDV", "EPOCH": "2025-12-15T00:57:10.497312", "MEAN_MOTION": 13.95218337, "ECCENTRICITY": 0.02603312, "INCLINATION": 74.1328, "RA_OF_ASC_NODE": 5.8808, "ARG_OF_PERICENTER": 37.9939, "MEAN_ANOMALY": 323.924, "EPHEMERIS_TYPE": 0, "CLASSIFICATION_TYPE": "U", "NORAD_CAT_ID": 36559, "ELEMENT_SET_NO": 999, "REV_AT_EPOCH": 81126, "BSTAR": 0.0020604981, "MEAN_MOTION_DOT": 3.675e-05, "MEAN_MOTION_DDOT": 0}, "tle": {"line1": "1 36559U 93036BDV 25349.03970483  .00003675  00000+0  20605-2 0  9991", "line2": "2 36559  74.1328   5.8808 0260331  37.9939 323.9240 13.95218337811262"}}, "geometry": {"type": "Point", "coordinates": [-67.4725953025633, -73.19257407884949]}}, {"type": "Feature", "properties": {"norad_id": 36614, "name": "COSMOS 2251 DEB", "group": "cosmos-2251-debris", "lat": -23.20642777226063, "lon": 159.74533296125443, "alt_km": 699.1937578644256, "timestamp": "2025-12-16T19:34:24.666042+00:00", "meta": {"OBJECT_NAME": "COSMOS 2251 DEB", "OBJECT_ID": "1993-036BEC", "EPOCH": "2025-12-11T06:30:21.400992", "MEAN_MOTION": 14.60233542, "ECCENTRICITY": 0.00161993, "INCLINATION": 74.0218, "RA_OF_ASC_NODE": 177.391, "ARG_OF_PERICENTER": 247.2616, "MEAN_ANOMALY": 112.6838, "EPHEMERIS_TYPE": 0, "CLASSIFICATION_TYPE": "U", "NORAD_CAT_ID": 36614, "ELEMENT_SET_NO": 999, "REV_AT_EPOCH": 65591, "BSTAR": 0.0024222077, "MEAN_MOTION_DOT": 0.00011696, "MEAN_MOTION_DDOT": 0}, "tle": {"line1": "1 36614U 93036BEC 25345.27108103  .00011696  00000+0  24222-2 0  9998", "line2": "2 36614  74.0218 177.3910 0016199 247.2616 112.6838 14.60233542655911"}}, "geometry": {"type": "Point", "coordinates": [159.74533296125443, -23.20642777226063]}}, {"type": "Feature", "properties": {"norad_id": 36622, "name": "COSMOS 2251 DEB", "group": "cosmos-2251-debris", "lat": -73.61456956806526, "lon": 60.3311639845247, "alt_km": 599.8574341905451, "timestamp": "2025-12-16T19:34:24.666051+00:00", "meta": {"OBJECT_NAME": "COSMOS 2251 DEB", "OBJECT_ID": "1993-036BEL", "EPOCH": "2025-12-13T04:07:59.528928", "MEAN_MOTION": 14.76203873, "ECCENTRICITY": 0.00688136, "INCLINATION": 74.0135, "RA_OF_ASC_NODE": 144.6283, "ARG_OF_PERICENTER": 279.9599, "MEAN_ANOMALY": 79.3813, "EPHEMERIS_TYPE": 0, "CLASSIFICATION_TYPE": "U", "NORAD_CAT_ID": 36622, "ELEMENT_SET_NO": 999, "REV_AT_EPOCH": 66756, "BSTAR": 0.0010024349, "MEAN_MOTION_DOT": 7.182e-05, "MEAN_MOTION_DDOT": 0}, "tle": {"line1": "1 36622U 93036BEL 25347.17221677  .00007182  00000+0  10024-2 0  9990", "line2": "2 36622  74.0135 144.6283 0068813 279.9599  79.3813 14.76203873667567"}}, "geometry": {"type": "Point", "coordinates": [60.3311639845247, -73.61456956806526]}}, {"type": "Feature", "properties": {"norad_id": 36632, "name": "COSMOS 2251 DEB", "group": "cosmos-2251-debris", "lat": -46.61884662196946, "lon": -92.88760837506807, "alt_km": 750.5488679463069, "timestamp": "2025-12-16T19:34:24.666062+00:00", "meta": {"OBJECT_NAME": "COSMOS 2251 DEB", "OBJECT_ID": "1993-036BEW", "EPOCH": "2025-12-13T13:36:30.735360", "MEAN_MOTION": 14.43181896, "ECCENTRICITY": 0.00321339, "INCLINATION": 74.0018, "RA_OF_ASC_NODE": 290.8293, "ARG_OF_PERICENTER": 38.3996, "MEAN_ANOMALY": 321.9438, "EPHEMERIS_TYPE": 0, "CLASSIFICATION_TYPE": "U", "NORAD_CAT_ID": 36632, "ELEMENT_SET_NO": 999, "REV_AT_EPOCH": 65227, "BSTAR": 0.0011350112, "MEAN_MOTION_DOT": 3.814e-05, "MEAN_MOTION_DDOT": 0}, "tle": {"line1": "1 36632U 93036BEW 25347.56702240  .00003814  00000+0  11350-2 0  9995", "line2": "2 36632  74.0018 290.8293 0032133  38.3996 321.9438 14.43181896652272"}}, "geometry": {"type": "Point", "coordinates": [-92.88760837506807, -46.61884662196946]}}, {"type": "Feature", "properties": {"norad_id": 37084, "name": "COSMOS 2251 DEB", "group": "cosmos-2251-debris", "lat": 71.17864872324733, "lon": -149.66975590457602, "alt_km": 616.4449897582608, "timestamp": "2025-12-16T19:34:24.666071+00:00", "meta": {"OBJECT_NAME": "COSMOS 2251 DEB", "OBJECT_ID": "1993-036BFE", "EPOCH": "2025-12-15T04:49:21.003456", "MEAN_MOTION": 15.01025163, "ECCENTRICITY": 0.00974986, "INCLINATION": 74.0262, "RA_OF_ASC_NODE": 156.4351, "ARG_OF_PERICENTER": 236.3802, "MEAN_ANOMALY": 122.8054, "EPHEMERIS_TYPE": 0, "CLASSIFICATION_TYPE": "U", "NORAD_CAT_ID": 37084, "ELEMENT_SET_NO": 999, "REV_AT_EPOCH": 66304, "BSTAR": 0.00046158462, "MEAN_MOTION_DOT": 6.487e-05, "MEAN_MOTION_DDOT": 0}, "tle": {"line1": "1 37084U 93036BFE 25349.20093754  .00006487  00000+0  46158-3 0  9997", "line2": "2 37084  74.0262 156.4351 0097498 236.3802 122.8054 15.01025163663046"}}, "geometry": {"type": "Point", "coordinates": [-149.66975590457602, 71.17864872324733]}}]}